      2.10          N: GNSS NAV DATA                        RINEX VERSION / TYPE
fic2rin                                 05/17/2023 00:18:06 PGM / RUN BY / DATE
                                                            END OF HEADER
1  23  5 16  1 59 44.0  .185047276318D-03 -.284217094304D-11  .000000000000D+00
     .700000000000D+01 -.293750000000D+02  .373265548008D-08 -.586125857055D+00
    -.135041773319D-05  .128482473083D-01  .122394412756D-04  .515364964867D+04
     .179984000000D+06 -.167638063431D-07  .252001680095D+01  .171363353729D-06
     .990071475514D+00  .163187500000D+03  .961071332136D+00 -.782282585210D-08
     .126433837905D-09  .100000000000D+01  .226200000000D+04  .000000000000D+00
     .240000000000D+01  .000000000000D+00  .465661287308D-08  .700000000000D+01
     .172800000000D+06  .400000000000D+01
5  23  5 16  1 59 44.0 -.127351842821D-03 -.147792889038D-11  .000000000000D+00
     .510000000000D+02  .415937500000D+02  .471233914498D-08  .201932037849D+01
     .211596488953D-05  .592304661404D-02  .769458711147D-05  .515366461372D+04
     .179984000000D+06 -.800937414169D-07 -.277948932587D+01 -.160187482834D-06
     .966038413000D+00  .234843750000D+03  .114316930500D+01 -.806176437627D-08
     .543951229181D-09  .100000000000D+01  .226200000000D+04  .000000000000D+00
     .240000000000D+01  .000000000000D+00 -.111758708954D-07  .510000000000D+02
     .172800000000D+06  .400000000000D+01
18 23  5 16 20  0  0.0 -.268996693194D-03 -.158024704433D-10  .000000000000D+00
     .105000000000D+03 -.804062500000D+02  .408052711319D-08  .275220873298D+01
    -.405870378017D-05  .318632950075D-02  .118818134069D-04  .515368246460D+04
     .244800000000D+06 -.894069671631D-07  .252066847098D+01  .167638063431D-07
     .973949950045D+00  .159062500000D+03  .312795692291D+01 -.775496588260D-08
    -.542879755978D-10  .100000000000D+01  .226200000000D+04  .000000000000D+00
     .240000000000D+01  .000000000000D+00 -.838190317154D-08  .617000000000D+03
     .237600000000D+06  .400000000000D+01
28 23  5 16 20  0  0.0  .781062990427D-04  .329691829393D-11  .000000000000D+00
     .167000000000D+03 -.931250000000D+01  .412410035676D-08  .390138381115D+00
    -.428408384323D-06  .728843617253D-03  .125858932734D-04  .515368648720D+04
     .244800000000D+06 -.111758708954D-07 -.674616907085D+00 -.128522515297D-06
     .961637020613D+00  .138406250000D+03  .172076550262D+01 -.779818196844D-08
    -.359300680601D-09  .100000000000D+01  .226200000000D+04  .000000000000D+00
     .240000000000D+01  .000000000000D+00 -.977888703346D-08  .423000000000D+03
     .237600000000D+06  .400000000000D+01
23 23  5 16 20  0  0.0  .247522257268D-04  .306954461848D-11  .000000000000D+00
     .160000000000D+03  .348750000000D+02  .440982654412D-08  .170093346684D+01
     .196322798729D-05  .314698123839D-02  .878795981407D-05  .515365517616D+04
     .244800000000D+06  .819563865662D-07 -.276338122853D+01  .670552253723D-07
     .973905178900D+00  .217437500000D+03 -.309512329926D+01 -.800426198107D-08
     .433589489314D-09  .100000000000D+01  .226200000000D+04  .000000000000D+00
     .240000000000D+01  .000000000000D+00 -.838190317154D-08  .928000000000D+03
     .237600000000D+06  .400000000000D+01
22 23  5 16 20  0  0.0  .482411123812D-03  .636646291241D-11  .000000000000D+00
     .390000000000D+02 -.398125000000D+02  .478055627221D-08 -.169516740742D+01
    -.197440385818D-05  .143476694357D-01  .526197254658D-05  .515362156296D+04
     .244800000000D+06  .352039933205D-06 -.160405519147D+01  .186264514923D-06
     .962161503077D+00  .278781250000D+03 -.180523742807D+01 -.816069706865D-08
    -.447161483213D-09  .100000000000D+01  .226200000000D+04  .000000000000D+00
     .240000000000D+01  .630000000000D+02 -.838190317154D-08  .390000000000D+02
     .237600000000D+06  .400000000000D+01
21 23  5 16 20  0  0.0  .153786037117D-03 -.227373675443D-12  .000000000000D+00
     .870000000000D+02 -.759687500000D+02  .440446917811D-08 -.154823360228D+01
    -.408850610256D-05  .246640511323D-01  .114273279905D-04  .515362955856D+04
     .244800000000D+06 -.579282641411D-06  .241620044788D+01 -.175088644028D-06
     .961806694241D+00  .166875000000D+03 -.761323900722D+00 -.818248369043D-08
    -.246438836595D-10  .100000000000D+01  .226200000000D+04  .000000000000D+00
     .485000000000D+01  .000000000000D+00 -.102445483208D-07  .870000000000D+02
     .237600000000D+06  .400000000000D+01
9  23  5 16 19 59 44.0 -.157398637384D-03  .841282599140D-11  .000000000000D+00
     .200000000000D+01 -.324062500000D+02  .499342228180D-08 -.109333764266D+01
    -.172108411789D-05  .234928750433D-02  .495836138725D-05  .515361058044D+04
     .244784000000D+06 -.484287738800D-07 -.170922120205D+01 -.745058059692D-08
     .955582137272D+00  .280031250000D+03  .195704734836D+01 -.841642200633D-08
    -.311441544219D-09  .100000000000D+01  .226200000000D+04  .000000000000D+00
     .240000000000D+01  .000000000000D+00  .931322574615D-09  .200000000000D+01
     .237870000000D+06  .400000000000D+01
21 23  5 16 19 59 44.0  .153783708811D-03 -.227373675443D-12  .000000000000D+00
     .000000000000D+00 -.759687500000D+02  .440482633584D-08 -.155056759738D+01
    -.408850610256D-05  .246640491532D-01  .114273279905D-04  .515362955856D+04
     .244784000000D+06 -.579282641411D-06  .241620056637D+01 -.175088644028D-06
     .961806673760D+00  .166875000000D+03 -.761323744190D+00 -.818248369043D-08
    -.246438836595D-10  .100000000000D+01  .226200000000D+04  .000000000000D+00
     .240000000000D+01  .000000000000D+00 -.102445483208D-07  .000000000000D+00
     .238200000000D+06  .400000000000D+01
23 23  5 16 20 59 44.0  .247634015977D-04  .318323145621D-11  .000000000000D+00
     .161000000000D+03  .376562500000D+02  .442625579989D-08  .222382288175D+01
     .201724469662D-05  .314716494177D-02  .875443220139D-05  .515365437508D+04
     .248384000000D+06 -.298023223877D-07 -.276341015919D+01  .949949026108D-07
     .973906919772D+00  .219437500000D+03 -.309525045171D+01 -.796783189218D-08
     .497877881469D-09  .100000000000D+01  .226200000000D+04  .000000000000D+00
     .240000000000D+01  .000000000000D+00 -.838190317154D-08  .929000000000D+03
     .241200000000D+06  .400000000000D+01
7  23  5 16 19 59 44.0  .176613219082D-03 -.932232069317D-11  .000000000000D+00
     .000000000000D+00 -.468750000000D+00  .436089593453D-08  .195001864727D+01
    -.152736902237D-06  .172878528247D-01  .120587646961D-04  .515375872040D+04
     .244784000000D+06 -.255182385445D-06 -.637157219013D+00 -.320374965668D-06
     .950513121738D+00  .143531250000D+03 -.219727659913D+01 -.789711466081D-08
    -.276797244002D-09  .100000000000D+01  .226200000000D+04  .000000000000D+00
     .240000000000D+01  .000000000000D+00 -.111758708954D-07  .000000000000D+00
     .242970000000D+06  .400000000000D+01
3  23  5 16 19 59 44.0 -.301332678646D-03  .113686837722D-10  .000000000000D+00
     .300000000000D+01  .359687500000D+02  .421053252844D-08  .142894256759D+01
     .179931521416D-05  .480352633167D-02  .863708555698D-05  .515367053986D+04
     .244784000000D+06 -.188127160072D-06 -.273359491736D+01  .353902578354D-07
     .979022485359D+00  .224156250000D+03  .101922205368D+01 -.793425906517D-08
     .425374861428D-09  .100000000000D+01  .226200000000D+04  .000000000000D+00
     .240000000000D+01  .000000000000D+00  .186264514923D-08  .300000000000D+01
     .243090000000D+06  .400000000000D+01
28 23  5 16 21 44 32.0  .781267881393D-04  .329691829393D-11  .000000000000D+00
     .168000000000D+03  .312500000000D+01  .424410535545D-08  .130693135085D+01
     .115483999252D-06  .727615901269D-03  .128652900457D-04  .515368295097D+04
     .251072000000D+06  .502914190292D-07 -.674665746605D+00 -.335276126862D-07
     .961634296660D+00  .132250000000D+03  .171878860583D+01 -.787068498848D-08
    -.410374236591D-09  .100000000000D+01  .226200000000D+04  .000000000000D+00
     .240000000000D+01  .000000000000D+00 -.977888703346D-08  .424000000000D+03
     .243900000000D+06  .400000000000D+01
3  23  5 16 21 59 44.0 -.301251187921D-03  .113686837722D-10  .000000000000D+00
     .600000000000D+01  .364687500000D+02  .421588989445D-08  .247936702105D+01
     .173225998878D-05  .480419816449D-02  .889971852303D-05  .515366802597D+04
     .251984000000D+06 -.447034835815D-07 -.273365160251D+01 -.987201929092D-07
     .979026496680D+00  .214218750000D+03  .101897889037D+01 -.775782314447D-08
     .461804950316D-09  .100000000000D+01  .226200000000D+04  .000000000000D+00
     .240000000000D+01  .000000000000D+00  .186264514923D-08  .600000000000D+01
     .244800000000D+06  .400000000000D+01
7  23  5 16 21 59 44.0  .176545698196D-03 -.932232069317D-11  .000000000000D+00
     .300000000000D+01 -.731250000000D+01  .428374986395D-08  .300020706182D+01
    -.445172190666D-06  .172892130213D-01  .123381614685D-04  .515375555038D+04
     .251984000000D+06  .614672899246D-07 -.637212300804D+00 -.154599547386D-06
     .950512365410D+00  .133250000000D+03 -.219733685087D+01 -.758531595886D-08
    -.317870383435D-09  .100000000000D+01  .226200000000D+04  .000000000000D+00
     .240000000000D+01  .000000000000D+00 -.111758708954D-07  .300000000000D+01
     .244800000000D+06  .400000000000D+01
9  23  5 16 21 59 44.0 -.157338101417D-03  .841282599140D-11  .000000000000D+00
     .100000000000D+02 -.323750000000D+02  .503628120990D-08 -.432327855962D-01
    -.171177089214D-05  .234860111959D-02  .474788248539D-05  .515360919952D+04
     .251984000000D+06 -.316649675369D-07 -.170928177710D+01 -.372529029846D-07
     .955579884378D+00  .285593750000D+03  .195716575549D+01 -.842285084555D-08
    -.323942064916D-09  .100000000000D+01  .226200000000D+04  .000000000000D+00
     .240000000000D+01  .000000000000D+00  .931322574615D-09  .100000000000D+02
     .244800000000D+06  .400000000000D+01
